#aV2008  6 30  0  0   .00000000      96 DD+AD WGS84 FIT  NGA
## 1486  86400.00000000   900.00000000 54647  .0000000000000
+   31     2  3  4  5  6  7  8  9 10 11 12 13 14 15 16 17 18
+         19 20 21 22 23 24 25 26 27 28 29 30 31 32  0  0  0
+          0  0  0  0  0  0  0  0  0  0  0  0  0  0  0  0  0
+          0  0  0  0  0  0  0  0  0  0  0  0  0  0  0  0  0
+          0  0  0  0  0  0  0  0  0  0  0  0  0  0  0  0  0
++         0  0  0  0  0  0  0  0  0  0  0  0  0  0  0  0  0
++         0  0  0  0  0  0  0  0  0  0  0  0  0  0  0  0  0
++         0  0  0  0  0  0  0  0  0  0  0  0  0  0  0  0  0
++         0  0  0  0  0  0  0  0  0  0  0  0  0  0  0  0  0
++         0  0  0  0  0  0  0  0  0  0  0  0  0  0  0  0  0
%c cc cc ccc ccc cccc cccc cccc cccc ccccc ccccc ccccc ccccc
%c cc cc ccc ccc cccc cccc cccc cccc ccccc ccccc ccccc ccccc
%f  0.0000000  0.000000000  0.00000000000  0.000000000000000
%f  0.0000000  0.000000000  0.00000000000  0.000000000000000
%i    0    0    0    0      0      0      0      0         0
%i    0    0    0    0      0      0      0      0         0
/*      NGA, ST. LOUIS,MO.                                  
/*   EPHEMERIS COMPUTED FROM  3 DAYS OF DATA                
/* CCCCCCCCCCCCCCCCCCCCCCCCCCCCCCCCCCCCCCCCCCCCCCCCCCCCCCCCC
/* CCCCCCCCCCCCCCCCCCCCCCCCCCCCCCCCCCCCCCCCCCCCCCCCCCCCCCCCC
*  2008  6 30  8 15   .00000000                                                 
P  2   7901.019024 -14070.695678  20893.090936    204.635121                    
V  2  26505.283422   5231.878630  -6812.023519      -.016857                    
P  3  -8661.010005  23717.477252  -7896.037480    249.061217                    
V  3  -8689.190304   6029.366783  28939.234323       .052736                    
P  4  19390.210524  -8426.167611  16194.109188   -103.443663                    
V  4  19954.707100   5707.957806 -20438.028950      -.094180                    
P  5 -15504.194619 -20304.420184   7251.141960   -375.838533                    
V  5  -1300.101255  -9970.503573 -29430.056678       .137523                    
P  6 -13892.029339  22359.463173  -3431.636848    155.316530                    
V  6  -5696.439906   1445.574529  30707.711512       .049980                    
P  7  25142.885987   7465.938558   4417.919531    -11.890028                    
V  7  -6000.741589   1638.088860  31092.976434       .063945                    
P  8  25598.957358    371.054328  -8035.474307   -159.734770                    
V  8   9340.870862   3712.913445  29785.779328      -.016676                    
P  9 -14412.137015 -14262.875845 -17872.792502      3.083741                    
V  9  21325.219493   1672.255365 -19079.252385       .017659                    
P 10   1040.479703 -23318.730481  12224.423552     -2.575197                    
V 10   7505.107811  14196.225643  26465.794447      -.002411                    
P 11  17673.220544  12407.407589 -15818.984814     24.040683                    
V 11 -19868.883146   3416.974596 -19375.881457      -.005114                    
P 12 -11777.591089 -23487.290687   4315.901557   -357.849892                    
V 12    566.435808  -5909.898034 -31144.895990       .005801                    
P 13  16441.632289   1891.535020  20648.122300    261.905319                    
V 13 -17361.253672  19914.958877  11943.878310       .015798                    
P 14 -20528.321158  13728.037738  -9535.562915   -249.655879                    
V 14   6745.460139 -10390.238819 -29274.262260       .043299                    
P 15   2125.661703 -20829.228221 -16316.161716   -134.936351                    
V 15  14608.934935 -14891.841836  20895.717192      -.062138                    
P 16  -5052.098130  20165.183243  16478.587190    119.083440                    
V 16  -8592.624448 -19104.086744  21032.199277      -.016352                    
P 17  20457.172464 -14085.948360  -9136.857604     38.579012                    
V 17  -5520.959453  10692.394989 -28865.881248      -.000085                    
P 18 -16862.725551  -9439.662411 -18190.344974   -161.810143                    
V 18  -5805.448045 -22709.076246  16629.029136       .042508                    
P 19  -2506.259634  20022.406626 -17084.326284     32.829341                    
V 19 -16587.452055  14502.655302  19521.392822       .005957                    
P 20  12954.324607  22537.901043   5422.506010    110.991403                    
V 20   -370.984600   7697.253655 -30413.657363      -.008387                    
P 21 -26475.086502  -4665.876859   -770.583585     59.610968                    
V 21   -576.768703  -3239.635246  30778.610125      -.012334                    
P 22 -14234.501875   6205.158916 -21390.287206    211.489830                    
V 22  -8659.783902 -26196.009996  -1881.516165       .001581                    
P 23   8475.336207  12831.114020  21558.670305    361.980326                    
V 23 -18106.825307  20755.811879  -5465.004421       .019286                    
P 24 -19717.126297 -13125.592953  11898.904495    105.809848                    
V 24  15205.617854    633.511343  26532.743346       .029351                    
P 25  21621.564659   9947.407238  11957.197406   -179.116904                    
V 25 -14820.399627   1159.294677  26807.424664      -.062167                    
P 26   6405.933977 -21214.313553 -14709.704754    283.660765                    
V 26  13286.898556 -12222.091339  24748.317234       .070944                    
P 27  25981.243619   5201.686427   3347.489453    199.333912                    
V 27  -3643.740120   1948.817876  31503.218700       .027923                    
P 28  14458.164316  -3922.664729 -21553.141935    -20.582539                    
V 28   9093.694975  26775.546628    881.585127      -.003394                    
P 29 -15003.743169  -5525.916378  21323.273383    -42.147632                    
V 29  17114.942434 -20642.463042   6760.941947       .003905                    
P 30 -17010.279453 -14260.644660  14315.597390     83.618835                    
V 30  -4958.529033 -18252.012032 -23411.720915       .018201                    
P 31 -17699.374498   9359.039121  17711.129140    -25.128274                    
V 31 -21484.126399  -5061.309395 -18903.813463      -.011952                    
P 32   6187.579028  25881.336386  -1311.115570    302.871120                    
V 32  -2901.604739  -1448.370714 -31757.664505       .036067                    
EOF
